OBJECT_NAME,OBJECT_ID,EPOCH,MEAN_MOTION,ECCENTRICITY,INCLINATION,RA_OF_ASC_NODE,ARG_OF_PERICENTER,MEAN_ANOMALY,EPHEMERIS_TYPE,CLASSIFICATION_TYPE,NORAD_CAT_ID,ELEMENT_SET_NO,REV_AT_EPOCH,BSTAR,MEAN_MOTION_DOT,MEAN_MOTION_DDOT
LEMUR-2-ALISIA,2025-009DB,2026-06-11T11:25:03.249120,15.02687690,.0001332,97.6968,244.6844,189.2646,170.8554,0,U,62706,999,9930,.47098E-3,.6226E-4,0
LEMUR-2-ROUNDTRIPPER,2025-009DG,2026-06-11T18:29:22.519392,15.03700151,.0004758,97.7253,245.4570,148.5367,211.6143,0,U,62711,999,7681,.59143E-3,.8051E-4,0
LEMUR-2-MYNAMEISJEFF,2025-009DH,2026-06-11T18:27:07.904736,15.03713228,.000296,97.7302,245.8332,172.2855,187.8416,0,U,62712,999,7681,.56928E-3,.7748E-4,0
LEMUR-2-LEIA-PHILIP,2025-052AN,2026-06-11T15:45:33.945696,14.97304634,.0002096,97.6848,54.7005,230.2927,129.8111,0,U,63246,999,6784,.16197E-3,.1821E-4,0
LEMUR-2-LIA-MARTIN,2025-052AQ,2026-06-11T15:55:21.063936,14.97762205,.0002592,97.6919,55.1739,164.8296,195.3004,0,U,63248,999,6785,.3793E-3,.4394E-4,0
LEMUR-2-DELOITTE-1,2025-052BB,2026-06-11T16:56:29.511168,14.97560412,.0002913,97.6925,55.5445,108.5002,251.6536,0,U,63259,999,6787,.3287E-3,.378E-4,0
LEMUR-2-EMERSONROSE,2025-052BD,2026-06-11T16:28:31.376064,14.99042683,.0002105,97.6903,56.0741,67.0289,293.1156,0,U,63261,999,6791,.27529E-3,.3281E-4,0
LEMUR-2-MARACHE-FRAN,2025-052BE,2026-06-11T15:58:20.981568,15.00045395,.0005925,97.6956,56.3574,41.5643,318.6030,0,U,63262,999,6793,.44713E-3,.5511E-4,0
LEMUR-2-THEFALCONER,2025-052BG,2026-06-11T15:57:09.000000,14.97356604,.0003321,97.6886,55.1306,51.0273,309.1245,0,U,63264,999,6786,.29015E-3,.3312E-4,0
LEMUR-2-UNTITLED-SC,2025-061A,2026-06-11T20:46:24.441888,15.13434654,.0017013,97.5631,138.2661,285.0778,74.8570,0,U,63351,999,6678,.18715E-3,.3288E-4,0
LEMUR-2-ESPERANZA,2025-061B,2026-06-11T10:42:44.378208,15.13524599,.0016534,97.5635,137.9421,286.0014,73.9396,0,U,63352,999,6672,.14178E-3,.248E-4,0
LEMUR-2-KREMPEL-BRO2,2025-061C,2026-06-11T20:55:00.941088,15.13964565,.0017471,97.5683,138.8908,275.8934,84.0306,0,U,63353,999,6680,.20618E-3,.3685E-4,0
LEMUR-2-THERMORAPTOR,2025-061D,2026-06-11T10:58:34.282272,15.14039692,.001711,97.5688,138.5536,276.3614,83.5669,0,U,63354,999,6674,.1666E-3,.297E-4,0
LEMUR-2-NEUROSPICY,2025-061E,2026-06-11T03:57:45.389088,15.14151039,.0015036,97.5614,137.8938,281.7235,78.2310,0,U,63355,999,6670,.17446664E-3,.3121E-4,0
LEMUR-2-TILLINFINITY,2025-061F,2026-06-11T15:57:45.929088,15.14742784,.0016211,97.5601,138.6774,266.3855,93.5523,0,U,63356,999,6680,.19157E-3,.3494E-4,0
LEMUR-2-KREMPEL-BRO1,2025-061G,2026-06-11T05:47:42.753984,15.14543691,.0016843,97.5601,138.1738,269.3774,90.5528,0,U,63357,999,6673,.15562E-3,.281E-4,0
LEMUR-2-LANGER2SPACE,2025-061H,2026-06-11T15:55:06.966048,15.14245348,.0014877,97.5606,138.4094,277.9438,82.0105,0,U,63358,999,6678,.19708E-3,.3544E-4,0
LEMUR-2-BALTO,2025-052BH,2026-06-11T15:36:12.083904,15.00025752,.0006812,97.6893,56.3243,71.7793,288.4172,0,U,63395,999,6793,.44038E-3,.5424E-4,0
LEMUR-2-KRISH,2025-135AK,2026-06-11T06:08:33.031968,14.96147894,.000147,97.7727,277.1737,107.2070,252.9312,0,U,64561,999,5303,.38142E-3,.4237E-4,0
LEMUR-2-HUBBLE-4,2025-135AP,2026-06-11T05:44:36.180096,14.93179582,.0001361,97.7693,276.2178,344.2917,15.8260,0,U,64565,999,5298,.10592E-3,.1049E-4,0
LEMUR-2-SEJONG-2,2025-135BL,2026-06-11T21:21:00.615744,14.96658997,.0004264,97.7686,277.9474,3.8495,356.2759,0,U,64586,999,5315,.3102E-3,.3481E-4,0
LEMUR-2-HUBBLE-5,2025-135BT,2026-06-11T14:22:28.328736,14.94119468,.000552,97.7712,277.1976,13.3853,346.7512,0,U,64840,999,5307,.17182E-3,.178E-4,0
LEMUR-2-KARENDARRELL,2025-135BU,2026-06-11T13:57:35.633088,15.00029122,.000931,97.7670,278.7999,223.7742,136.2744,0,U,64841,999,5317,.57839E-3,.7147E-4,0
LEMUR-2-LUCILLE-ROSE,2025-135BV,2026-06-11T13:20:00.866112,15.00083531,.0010793,97.7768,278.7865,304.7867,55.2340,0,U,65403,999,4779,.52049E-3,.6436E-4,0
LEMUR-2-AFFIE-WAUWIE,2025-248C,2026-06-10T06:03:03.284640,15.26939127,.0008368,45.3855,152.5549,38.3394,321.8088,0,U,66295,999,3353,.48614E-3,.12829E-3,0
LEMUR-2-DEANANDMAEVE,2025-276N,2026-06-11T17:13:47.290080,15.19665600,.0006247,97.4216,236.2843,32.7968,327.3654,0,U,66678,999,2958,.27356E-3,.577E-4,0
LEMUR-2-STAS-GORBUK,2025-276W,2026-06-11T17:32:52.502208,15.19323108,.0005656,97.4253,236.3526,33.5357,326.6235,0,U,66686,999,2958,.24463E-3,.5101E-4,0
LEMUR-2-TEODOR,2025-276DG,2026-06-11T17:18:07.470720,15.20990387,.0002,97.4155,236.5722,121.4051,238.7380,0,U,66768,999,2961,.22545E-3,.4929E-4,0
LEMUR-2-LAILA,2025-276DQ,2026-06-11T04:03:55.687392,15.21204262,.00018283,97.4179,236.1463,143.6589,216.4771,0,U,66776,999,2953,.22419742E-3,.4932E-4,0
LEMUR-2-CELIJO-SB-PK,2025-276DW,2026-06-11T16:47:34.359072,14.99907375,.0008901,97.5276,233.6565,145.4415,214.7389,0,U,66781,999,2180,.49688E-3,.6114E-4,0
